{"type": "FeatureCollection", "features": [{"type": "Feature", "properties": {"norad_id": 28890, "name": "BEIJING 1", "group": "dmc", "lat": -78.93504545751084, "lon": -107.03922505305434, "alt_km": 698.235222931934, "timestamp": "2025-12-19T10:50:00.858236+00:00", "meta": {"OBJECT_NAME": "BEIJING 1", "OBJECT_ID": "2005-043A", "EPOCH": "2025-12-18T22:09:03.923712", "MEAN_MOTION": 14.63371494, "ECCENTRICITY": 0.00156119, "INCLINATION": 98.265, "RA_OF_ASC_NODE": 120.4442, "ARG_OF_PERICENTER": 122.9902, "MEAN_ANOMALY": 237.2803, "EPHEMERIS_TYPE": 0, "CLASSIFICATION_TYPE": "U", "NORAD_CAT_ID": 28890, "ELEMENT_SET_NO": 999, "REV_AT_EPOCH": 7428, "BSTAR": 5.1524048e-05, "MEAN_MOTION_DOT": 2.18e-06, "MEAN_MOTION_DDOT": 0}, "tle": {"line1": "1 28890U 05043A   25352.92296208  .00000218  00000+0  51524-4 0  9995", "line2": "2 28890  98.2650 120.4442 0015611 122.9902 237.2803 14.63371494 74283"}}, "geometry": {"type": "Point", "coordinates": [-107.03922505305434, -78.93504545751084]}}, {"type": "Feature", "properties": {"norad_id": 33320, "name": "HUANJING 1A (HJ-1A)", "group": "dmc", "lat": 52.36023486761214, "lon": -28.571803051019703, "alt_km": 603.1373014942401, "timestamp": "2025-12-19T10:50:00.858259+00:00", "meta": {"OBJECT_NAME": "HUANJING 1A (HJ-1A)", "OBJECT_ID": "2008-041A", "EPOCH": "2025-12-18T23:15:50.508576", "MEAN_MOTION": 14.83412048, "ECCENTRICITY": 0.00197139, "INCLINATION": 97.6535, "RA_OF_ASC_NODE": 341.0078, "ARG_OF_PERICENTER": 14.6493, "MEAN_ANOMALY": 345.5289, "EPHEMERIS_TYPE": 0, "CLASSIFICATION_TYPE": "U", "NORAD_CAT_ID": 33320, "ELEMENT_SET_NO": 999, "REV_AT_EPOCH": 93168, "BSTAR": 8.9649061e-05, "MEAN_MOTION_DOT": 6.87e-06, "MEAN_MOTION_DDOT": 0}, "tle": {"line1": "1 33320U 08041A   25352.96933459  .00000687  00000+0  89649-4 0  9999", "line2": "2 33320  97.6535 341.0078 0019713  14.6493 345.5289 14.83412048931687"}}, "geometry": {"type": "Point", "coordinates": [-28.571803051019703, 52.36023486761214]}}, {"type": "Feature", "properties": {"norad_id": 33321, "name": "HUANJING 1B (HJ-1B)", "group": "dmc", "lat": -77.43971909937619, "lon": 128.10506525556428, "alt_km": 651.730732964641, "timestamp": "2025-12-19T10:50:00.858273+00:00", "meta": {"OBJECT_NAME": "HUANJING 1B (HJ-1B)", "OBJECT_ID": "2008-041B", "EPOCH": "2025-12-18T23:56:53.642976", "MEAN_MOTION": 14.82836241, "ECCENTRICITY": 0.00380512, "INCLINATION": 97.6395, "RA_OF_ASC_NODE": 344.7158, "ARG_OF_PERICENTER": 55.867, "MEAN_ANOMALY": 304.6144, "EPHEMERIS_TYPE": 0, "CLASSIFICATION_TYPE": "U", "NORAD_CAT_ID": 33321, "ELEMENT_SET_NO": 999, "REV_AT_EPOCH": 93170, "BSTAR": 0.00011338759, "MEAN_MOTION_DOT": 8.78e-06, "MEAN_MOTION_DDOT": 0}, "tle": {"line1": "1 33321U 08041B   25352.99784309  .00000878  00000+0  11339-3 0  9993", "line2": "2 33321  97.6395 344.7158 0038051  55.8670 304.6144 14.82836241931704"}}, "geometry": {"type": "Point", "coordinates": [128.10506525556428, -77.43971909937619]}}, {"type": "Feature", "properties": {"norad_id": 33446, "name": "YAOGAN-4", "group": "dmc", "lat": 11.247872260355718, "lon": 105.07102900496898, "alt_km": 628.37004666535, "timestamp": "2025-12-19T10:50:00.858286+00:00", "meta": {"OBJECT_NAME": "YAOGAN-4", "OBJECT_ID": "2008-061A", "EPOCH": "2025-12-18T19:29:52.486656", "MEAN_MOTION": 14.82699473, "ECCENTRICITY": 0.00132112, "INCLINATION": 97.9189, "RA_OF_ASC_NODE": 282.8521, "ARG_OF_PERICENTER": 302.0328, "MEAN_ANOMALY": 57.9601, "EPHEMERIS_TYPE": 0, "CLASSIFICATION_TYPE": "U", "NORAD_CAT_ID": 33446, "ELEMENT_SET_NO": 999, "REV_AT_EPOCH": 91893, "BSTAR": 0.00013226403, "MEAN_MOTION_DOT": 1.015e-05, "MEAN_MOTION_DDOT": 0}, "tle": {"line1": "1 33446U 08061A   25352.81241304  .00001015  00000+0  13226-3 0  9998", "line2": "2 33446  97.9189 282.8521 0013211 302.0328  57.9601 14.82699473918930"}}, "geometry": {"type": "Point", "coordinates": [105.07102900496898, 11.247872260355718]}}, {"type": "Feature", "properties": {"norad_id": 35681, "name": "DEIMOS-1", "group": "dmc", "lat": 66.94681110527257, "lon": -7.685934015570564, "alt_km": 637.4079529135797, "timestamp": "2025-12-19T10:50:00.858298+00:00", "meta": {"OBJECT_NAME": "DEIMOS-1", "OBJECT_ID": "2009-041A", "EPOCH": "2025-12-18T22:55:54.793056", "MEAN_MOTION": 14.74962914, "ECCENTRICITY": 0.00026414, "INCLINATION": 97.7141, "RA_OF_ASC_NODE": 153.2689, "ARG_OF_PERICENTER": 69.7703, "MEAN_ANOMALY": 290.3791, "EPHEMERIS_TYPE": 0, "CLASSIFICATION_TYPE": "U", "NORAD_CAT_ID": 35681, "ELEMENT_SET_NO": 999, "REV_AT_EPOCH": 88031, "BSTAR": 0.00012056233, "MEAN_MOTION_DOT": 7.63e-06, "MEAN_MOTION_DDOT": 0}, "tle": {"line1": "1 35681U 09041A   25352.95549529  .00000763  00000+0  12056-3 0  9994", "line2": "2 35681  97.7141 153.2689 0002641  69.7703 290.3791 14.74962914880311"}}, "geometry": {"type": "Point", "coordinates": [-7.685934015570564, 66.94681110527257]}}, {"type": "Feature", "properties": {"norad_id": 35683, "name": "UK-DMC 2", "group": "dmc", "lat": 36.42323157086271, "lon": -45.98866224407098, "alt_km": 639.9348909708833, "timestamp": "2025-12-19T10:50:00.858309+00:00", "meta": {"OBJECT_NAME": "UK-DMC 2", "OBJECT_ID": "2009-041C", "EPOCH": "2025-12-18T22:47:44.124000", "MEAN_MOTION": 14.7563493, "ECCENTRICITY": 0.00014945, "INCLINATION": 97.8557, "RA_OF_ASC_NODE": 127.6768, "ARG_OF_PERICENTER": 94.3826, "MEAN_ANOMALY": 265.7555, "EPHEMERIS_TYPE": 0, "CLASSIFICATION_TYPE": "U", "NORAD_CAT_ID": 35683, "ELEMENT_SET_NO": 999, "REV_AT_EPOCH": 87998, "BSTAR": 0.00012823122, "MEAN_MOTION_DOT": 8.26e-06, "MEAN_MOTION_DDOT": 0}, "tle": {"line1": "1 35683U 09041C   25352.94981625  .00000826  00000+0  12823-3 0  9994", "line2": "2 35683  97.8557 127.6768 0001494  94.3826 265.7555 14.75634930879983"}}, "geometry": {"type": "Point", "coordinates": [-45.98866224407098, 36.42323157086271]}}, {"type": "Feature", "properties": {"norad_id": 40715, "name": "DMC3-FM1", "group": "dmc", "lat": 67.50198933546262, "lon": -158.5878531791464, "alt_km": 607.6940410633597, "timestamp": "2025-12-19T10:50:00.858320+00:00", "meta": {"OBJECT_NAME": "DMC3-FM1", "OBJECT_ID": "2015-032A", "EPOCH": "2025-12-18T21:35:29.956992", "MEAN_MOTION": 14.8544948, "ECCENTRICITY": 0.00042866, "INCLINATION": 97.6693, "RA_OF_ASC_NODE": 219.8674, "ARG_OF_PERICENTER": 296.6458, "MEAN_ANOMALY": 63.4319, "EPHEMERIS_TYPE": 0, "CLASSIFICATION_TYPE": "U", "NORAD_CAT_ID": 40715, "ELEMENT_SET_NO": 999, "REV_AT_EPOCH": 56314, "BSTAR": 3.7409392e-05, "MEAN_MOTION_DOT": 2.71e-06, "MEAN_MOTION_DDOT": 0}, "tle": {"line1": "1 40715U 15032A   25352.89965228  .00000271  00000+0  37409-4 0  9990", "line2": "2 40715  97.6693 219.8674 0004286 296.6458  63.4319 14.85449480563148"}}, "geometry": {"type": "Point", "coordinates": [-158.5878531791464, 67.50198933546262]}}, {"type": "Feature", "properties": {"norad_id": 40716, "name": "DMC3-FM2", "group": "dmc", "lat": -50.831615255477566, "lon": -128.62449078224682, "alt_km": 615.7338102093036, "timestamp": "2025-12-19T10:50:00.858330+00:00", "meta": {"OBJECT_NAME": "DMC3-FM2", "OBJECT_ID": "2015-032B", "EPOCH": "2025-12-18T22:07:53.044608", "MEAN_MOTION": 14.85451451, "ECCENTRICITY": 0.00048857, "INCLINATION": 97.675, "RA_OF_ASC_NODE": 221.3372, "ARG_OF_PERICENTER": 302.1656, "MEAN_ANOMALY": 57.9085, "EPHEMERIS_TYPE": 0, "CLASSIFICATION_TYPE": "U", "NORAD_CAT_ID": 40716, "ELEMENT_SET_NO": 999, "REV_AT_EPOCH": 56314, "BSTAR": 7.9739842e-05, "MEAN_MOTION_DOT": 6.36e-06, "MEAN_MOTION_DDOT": 0}, "tle": {"line1": "1 40716U 15032B   25352.92214172  .00000636  00000+0  79740-4 0  9999", "line2": "2 40716  97.6750 221.3372 0004885 302.1656  57.9085 14.85451451563143"}}, "geometry": {"type": "Point", "coordinates": [-128.62449078224682, -50.831615255477566]}}, {"type": "Feature", "properties": {"norad_id": 40717, "name": "DMC3-FM3", "group": "dmc", "lat": -12.714186020410786, "lon": 41.7401497157331, "alt_km": 617.7338124763164, "timestamp": "2025-12-19T10:50:00.858340+00:00", "meta": {"OBJECT_NAME": "DMC3-FM3", "OBJECT_ID": "2015-032C", "EPOCH": "2025-12-18T22:39:05.717952", "MEAN_MOTION": 14.85440965, "ECCENTRICITY": 0.00041842, "INCLINATION": 97.6806, "RA_OF_ASC_NODE": 222.9953, "ARG_OF_PERICENTER": 304.5032, "MEAN_ANOMALY": 55.5788, "EPHEMERIS_TYPE": 0, "CLASSIFICATION_TYPE": "U", "NORAD_CAT_ID": 40717, "ELEMENT_SET_NO": 999, "REV_AT_EPOCH": 56315, "BSTAR": 0.00012713807, "MEAN_MOTION_DOT": 1.044e-05, "MEAN_MOTION_DDOT": 0}, "tle": {"line1": "1 40717U 15032C   25352.94381618  .00001044  00000+0  12714-3 0  9993", "line2": "2 40717  97.6806 222.9953 0004184 304.5032  55.5788 14.85440965563157"}}, "geometry": {"type": "Point", "coordinates": [41.7401497157331, -12.714186020410786]}}]}